GLOBALSTAR M094 [+]     
1 39074U 13005C   24090.27111259 -.00000112  00000+0 -43889-4 0  9996
2 39074  51.9940  93.7087 0000440  59.1674 300.9236 12.62264160516316
GLOBALSTAR M096 [+]     
1 39075U 13005D   24090.44257243 -.00000087  00000+0  94980-4 0  9998
2 39075  52.0060 141.3566 0000379  61.4130 298.6775 12.62264096515259
GLOBALSTAR M078 [+]     
1 39076U 13005E   24090.57510683 -.00000074  00000+0  16717-3 0  9990
2 39076  51.9861 226.0687 0000380 262.1265  97.9559 12.62261775513892
GLOBALSTAR M095 [+]     
1 39077U 13005F   24090.52166622 -.00000080  00000+0  13117-3 0  9994
2 39077  51.9788 223.6439 0000284  30.5683 329.5200 12.62276400514106
GLOBALSTAR M087 [+]     
1 52888U 22064A   24090.35081583 -.00000091  00000+0  70379-4 0  9993
2 52888  51.9743 123.2790 0009623 162.3317 197.7920 13.37568943 86973
